[
    {
        "Altitude(m)": 611965.1724349564,
        "Argument of Periapsis(deg)": 0.0,
        "Eccentricity": 0.0,
        "Inclination(deg)": 60.0,
        "Latitude(deg)": 59.14012239740141,
        "Longitude(deg)": -116.03010184649354,
        "Mean Anomaly(deg)": 81.8182,
        "RAAN(deg)": 270.0,
        "Satellite Name": "Test1 1193",
        "Satellite Number": 1193,
        "Semi-Major Axis(m)": 6980739.136638005,
        "Time(s)": 0
    },
    {
        "Altitude(m)": 611995.7976641991,
        "Argument of Periapsis(deg)": 0.00010418945913296404,
        "Eccentricity": 0.0,
        "Inclination(deg)": 60.0,
        "Latitude(deg)": 59.28322144023999,
        "Longitude(deg)": -114.8967405258736,
        "Mean Anomaly(deg)": 82.43830614546187,
        "RAAN(deg)": 269.99957995086027,
        "Satellite Name": "Test1 1193",
        "Satellite Number": 1193,
        "Semi-Major Axis(m)": 6980739.136638005,
        "Time(s)": 10
    },
    {
        "Altitude(m)": 612024.082012151,
        "Argument of Periapsis(deg)": 0.0002083789182659281,
        "Eccentricity": 0.0,
        "Inclination(deg)": 60.0,
        "Latitude(deg)": 59.41563844293922,
        "Longitude(deg)": -113.75385577667797,
        "Mean Anomaly(deg)": 83.05841229092367,
        "RAAN(deg)": 269.9991599017205,
        "Satellite Name": "Test1 1193",
        "Satellite Number": 1193,
        "Semi-Major Axis(m)": 6980739.136638005,
        "Time(s)": 20
    },
    {
        "Altitude(m)": 612050.0092600802,
        "Argument of Periapsis(deg)": 0.00031256837739889213,
        "Eccentricity": 0.0,
        "Inclination(deg)": 60.0,
        "Latitude(deg)": 59.537233982174705,
        "Longitude(deg)": -112.60207560489958,
        "Mean Anomaly(deg)": 83.67851843638552,
        "RAAN(deg)": 269.9987398525808,
        "Satellite Name": "Test1 1193",
        "Satellite Number": 1193,
        "Semi-Major Axis(m)": 6980739.136638005,
        "Time(s)": 30
    },
    {
        "Altitude(m)": 612073.5645495064,
        "Argument of Periapsis(deg)": 0.0004167578365318562,
        "Eccentricity": 0.0,
        "Inclination(deg)": 60.0,
        "Latitude(deg)": 59.64787789090299,
        "Longitude(deg)": -111.44206363155863,
        "Mean Anomaly(deg)": 84.29862458184732,
        "RAAN(deg)": 269.99831980344106,
        "Satellite Name": "Test1 1193",
        "Satellite Number": 1193,
        "Semi-Major Axis(m)": 6980739.136638005,
        "Time(s)": 40
    },
    {
        "Altitude(m)": 612094.7343892017,
        "Argument of Periapsis(deg)": 0.0005209472956648203,
        "Eccentricity": 0.0,
        "Inclination(deg)": 60.0,
        "Latitude(deg)": 59.747449911495124,
        "Longitude(deg)": -110.27451823375114,
        "Mean Anomaly(deg)": 84.91873072730917,
        "RAAN(deg)": 269.9978997543013,
        "Satellite Name": "Test1 1193",
        "Satellite Number": 1193,
        "Semi-Major Axis(m)": 6980739.136638005,
        "Time(s)": 50
    },
    {
        "Altitude(m)": 612113.5066615527,
        "Argument of Periapsis(deg)": 0.0006251367547977843,
        "Eccentricity": 0.0,
        "Inclination(deg)": 60.0,
        "Latitude(deg)": 59.835840315304765,
        "Longitude(deg)": -109.10016983991201,
        "Mean Anomaly(deg)": 85.53883687277097,
        "RAAN(deg)": 269.99747970516154,
        "Satellite Name": "Test1 1193",
        "Satellite Number": 1193,
        "Semi-Major Axis(m)": 6980739.136638005,
        "Time(s)": 60
    },
    {
        "Altitude(m)": 612129.8706282659,
        "Argument of Periapsis(deg)": 0.0007293262139307483,
        "Eccentricity": 0.0,
        "Inclination(deg)": 60.0,
        "Latitude(deg)": 59.912950481609876,
        "Longitude(deg)": -107.91977790271311,
        "Mean Anomaly(deg)": 86.15894301823282,
        "RAAN(deg)": 269.9970596560218,
        "Satellite Name": "Test1 1193",
        "Satellite Number": 1193,
        "Semi-Major Axis(m)": 6980739.136638005,
        "Time(s)": 70
    },
    {
        "Altitude(m)": 612143.8169354296,
        "Argument of Periapsis(deg)": 0.0008335156730637124,
        "Eccentricity": 0.0,
        "Inclination(deg)": 60.0,
        "Latitude(deg)": 59.97869342910286,
        "Longitude(deg)": -106.73412907862027,
        "Mean Anomaly(deg)": 86.77904916369462,
        "RAAN(deg)": 269.99663960688207,
        "Satellite Name": "Test1 1193",
        "Satellite Number": 1193,
        "Semi-Major Axis(m)": 6980739.136638005,
        "Time(s)": 80
    },
    {
        "Altitude(m)": 612155.337617929,
        "Argument of Periapsis(deg)": 0.0009377051321966765,
        "Eccentricity": 0.0,
        "Inclination(deg)": 60.0,
        "Latitude(deg)": 60.03299429346278,
        "Longitude(deg)": -105.54403361019519,
        "Mean Anomaly(deg)": 87.39915530915648,
        "RAAN(deg)": 269.99621955774234,
        "Satellite Name": "Test1 1193",
        "Satellite Number": 1193,
        "Semi-Major Axis(m)": 6980739.136638005,
        "Time(s)": 90
    },
    {
        "Altitude(m)": 612164.426103175,
        "Argument of Periapsis(deg)": 0.0010418945913296407,
        "Eccentricity": 0.0,
        "Inclination(deg)": 60.0,
        "Latitude(deg)": 60.075790745041985,
        "Longitude(deg)": -104.35032145131218,
        "Mean Anomaly(deg)": 88.01926145461833,
        "RAAN(deg)": 269.99579950860254,
        "Satellite Name": "Test1 1193",
        "Satellite Number": 1193,
        "Semi-Major Axis(m)": 6980739.136638005,
        "Time(s)": 100
    },
    {
        "Altitude(m)": 612171.0772142177,
        "Argument of Periapsis(deg)": 0.0011460840504626045,
        "Eccentricity": 0.0,
        "Inclination(deg)": 60.0,
        "Latitude(deg)": 60.10703334132668,
        "Longitude(deg)": -103.15383968056268,
        "Mean Anomaly(deg)": 88.63936760008013,
        "RAAN(deg)": 269.99537945946287,
        "Satellite Name": "Test1 1193",
        "Satellite Number": 1193,
        "Semi-Major Axis(m)": 6980739.136638005,
        "Time(s)": 110
    },
    {
        "Altitude(m)": 612175.2871721775,
        "Argument of Periapsis(deg)": 0.0012502735095955685,
        "Eccentricity": 0.0,
        "Inclination(deg)": 60.0,
        "Latitude(deg)": 60.126685809574276,
        "Longitude(deg)": -101.95544821409769,
        "Mean Anomaly(deg)": 89.25947374554198,
        "RAAN(deg)": 269.99495941032313,
        "Satellite Name": "Test1 1193",
        "Satellite Number": 1193,
        "Semi-Major Axis(m)": 6980739.136638005,
        "Time(s)": 120
    },
    {
        "Altitude(m)": 612177.0535980121,
        "Argument of Periapsis(deg)": 0.0013544629687285324,
        "Eccentricity": 0.0,
        "Inclination(deg)": 60.0,
        "Latitude(deg)": 60.13472525588774,
        "Longitude(deg)": -100.75601537167515,
        "Mean Anomaly(deg)": 89.87957989100379,
        "RAAN(deg)": 269.99453936118334,
        "Satellite Name": "Test1 1193",
        "Satellite Number": 1193,
        "Semi-Major Axis(m)": 6980739.136638005,
        "Time(s)": 130
    },
    {
        "Altitude(m)": 612176.3755136437,
        "Argument of Periapsis(deg)": 0.0014586524278614966,
        "Eccentricity": 0.0,
        "Inclination(deg)": 60.0,
        "Latitude(deg)": 60.13114229792725,
        "Longitude(deg)": -99.556414852786,
        "Mean Anomaly(deg)": -269.5003139635344,
        "RAAN(deg)": 269.9941193120436,
        "Satellite Name": "Test1 1193",
        "Satellite Number": 1193,
        "Semi-Major Axis(m)": 6980739.136638005,
        "Time(s)": 140
    },
    {
        "Altitude(m)": 612173.2533424163,
        "Argument of Periapsis(deg)": 0.0015628418869944607,
        "Eccentricity": 0.0,
        "Inclination(deg)": 60.0,
        "Latitude(deg)": 60.11594111946634,
        "Longitude(deg)": -98.35752114333376,
        "Mean Anomaly(deg)": -268.88020781807256,
        "RAAN(deg)": 269.9936992629039,
        "Satellite Name": "Test1 1193",
        "Satellite Number": 1193,
        "Semi-Major Axis(m)": 6980739.136638005,
        "Time(s)": 150
    },
    {
        "Altitude(m)": 612167.6889088879,
        "Argument of Periapsis(deg)": 0.0016670313461274247,
        "Eccentricity": 0.0,
        "Inclination(deg)": 60.0,
        "Latitude(deg)": 60.08913944605359,
        "Longitude(deg)": -97.1602049131658,
        "Mean Anomaly(deg)": -268.2601016726107,
        "RAAN(deg)": 269.99327921376414,
        "Satellite Name": "Test1 1193",
        "Satellite Number": 1193,
        "Semi-Major Axis(m)": 6980739.136638005,
        "Time(s)": 160
    },
    {
        "Altitude(m)": 612159.6854379675,
        "Argument of Periapsis(deg)": 0.0017712208052603888,
        "Eccentricity": 0.0,
        "Inclination(deg)": 60.0,
        "Latitude(deg)": 60.05076844211112,
        "Longitude(deg)": -95.96532996495628,
        "Mean Anomaly(deg)": -267.6399955271489,
        "RAAN(deg)": 269.9928591646244,
        "Satellite Name": "Test1 1193",
        "Satellite Number": 1193,
        "Semi-Major Axis(m)": 6980739.136638005,
        "Time(s)": 170
    },
    {
        "Altitude(m)": 612149.2475534014,
        "Argument of Periapsis(deg)": 0.001875410264393353,
        "Eccentricity": 0.0,
        "Inclination(deg)": 60.0,
        "Latitude(deg)": 60.00087253085952,
        "Longitude(deg)": -94.77374875549874,
        "Mean Anomaly(deg)": -267.01988938168705,
        "RAAN(deg)": 269.9924391154846,
        "Satellite Name": "Test1 1193",
        "Satellite Number": 1193,
        "Semi-Major Axis(m)": 6980739.136638005,
        "Time(s)": 180
    },
    {
        "Altitude(m)": 612136.3812755799,
        "Argument of Periapsis(deg)": 0.0019795997235263173,
        "Eccentricity": 0.0,
        "Inclination(deg)": 60.0,
        "Latitude(deg)": 59.939509139491165,
        "Longitude(deg)": -93.5862980472428,
        "Mean Anomaly(deg)": -266.39978323622523,
        "RAAN(deg)": 269.99201906634494,
        "Satellite Name": "Test1 1193",
        "Satellite Number": 1193,
        "Semi-Major Axis(m)": 6980739.136638005,
        "Time(s)": 190
    }
]